{
  "type": "FeatureCollection",
  "features": [
    {
      "type": "Feature",
      "geometry": {
        "type": "Polygon",
        "coordinates": [
          [
            [
              -141.232962,
              -85.526116
            ],
            [
              -141.234158,
              -85.548887
            ],
            [
              -141.527555,
              -85.548735
            ],
            [
              -141.52486,
              -85.525965
            ],
            [
              -141.232962,
              -85.526116
            ]
          ]
        ]
      },
      "properties": {
        "evidence_id": "36a5a54f-5a4a-4b73-9d26-536edffdf1d3_mc4b_0"
      }
    }
  ]
}