{
  "type": "FeatureCollection",
  "features": [
    {
      "type": "Feature",
      "geometry": {
        "type": "Polygon",
        "coordinates": [
          [
            [
              0,
              0
            ],
            [
              1000.0,
              0
            ],
            [
              1000.0,
              -1000.0
            ],
            [
              0,
              -1000.0
            ],
            [
              0,
              0
            ]
          ]
        ]
      },
      "properties": {
        "evidence_id": "089e4cb1-5700-4e35-9066-abb6a02d89c9_mc4a_0"
      }
    }
  ]
}