{
  "type": "FeatureCollection",
  "features": [
    {
      "type": "Feature",
      "geometry": {
        "type": "Polygon",
        "coordinates": [
          [
            [
              -147.232962,
              -85.526116
            ],
            [
              -147.234158,
              -85.548887
            ],
            [
              -147.527555,
              -85.548735
            ],
            [
              -147.52486,
              -85.525965
            ],
            [
              -147.232962,
              -85.526116
            ]
          ]
        ]
      },
      "properties": {
        "evidence_id": "0de40769-2d1b-4951-90ab-f66701826317_mc4b_0"
      }
    }
  ]
}