{
  "type": "FeatureCollection",
  "features": [
    {
      "type": "Feature",
      "geometry": {
        "type": "Polygon",
        "coordinates": [
          [
            [
              0,
              0
            ],
            [
              1000.0,
              0
            ],
            [
              1000.0,
              -1000.0
            ],
            [
              0,
              -1000.0
            ],
            [
              0,
              0
            ]
          ]
        ]
      },
      "properties": {
        "evidence_id": "124be1c8-7fe5-44b1-b25b-c13c88febf58_mc4a_0"
      }
    }
  ]
}